{
  "type": "FeatureCollection",
  "features": [
    {
      "type": "Feature",
      "properties": {
        "norad_id": 30709,
        "name": "FENGYUN 1C DEB",
        "group": "fengyun-1c-debris",
        "lat": -43.70603222573062,
        "lon": 144.5857310956234,
        "alt_km": 785.2138728487316,
        "timestamp": "2025-12-21T05:44:51.864058+00:00",
        "meta_object_name": "FENGYUN 1C DEB",
        "meta_object_id": "1999-025ART",
        "meta_epoch": "2025-12-18T14:00:31.029408",
        "meta_mean_motion": 14.17535884,
        "meta_eccentricity": 0.00820061,
        "meta_inclination": 99.1439,
        "meta_ra_of_asc_node": 330.7095,
        "meta_arg_of_pericenter": 253.5213,
        "meta_mean_anomaly": 105.6937,
        "meta_ephemeris_type": 0,
        "meta_classification_type": "U",
        "meta_norad_cat_id": 30709,
        "meta_element_set_no": 999,
        "meta_rev_at_epoch": 96079,
        "meta_bstar": 0.0019274386,
        "meta_mean_motion_dot": 3.998e-05,
        "meta_mean_motion_ddot": 0,
        "tle_line1": "1 30709U 99025ART 25352.58369247  .00003998  00000+0  19274-2 0  9998",
        "tle_line2": "2 30709  99.1439 330.7095 0082006 253.5213 105.6937 14.17535884960798"
      },
      "geometry": {
        "type": "Point",
        "coordinates": [
          144.5857310956234,
          -43.70603222573062
        ]
      }
    },
    {
      "type": "Feature",
      "properties": {
        "norad_id": 30710,
        "name": "FENGYUN 1C DEB",
        "group": "fengyun-1c-debris",
        "lat": 65.51773149540088,
        "lon": 97.44819119126943,
        "alt_km": 795.6396691384653,
        "timestamp": "2025-12-21T05:44:51.864068+00:00",
        "meta_object_name": "FENGYUN 1C DEB",
        "meta_object_id": "1999-025ARU",
        "meta_epoch": "2025-12-19T11:02:00.151872",
        "meta_mean_motion": 13.94198535,
        "meta_eccentricity": 0.0224534,
        "meta_inclination": 102.7471,
        "meta_ra_of_asc_node": 245.1907,
        "meta_arg_of_pericenter": 67.296,
        "meta_mean_anomaly": 113.1689,
        "meta_ephemeris_type": 0,
        "meta_classification_type": "U",
        "meta_norad_cat_id": 30710,
        "meta_element_set_no": 999,
        "meta_rev_at_epoch": 94882,
        "meta_bstar": 0.0021978,
        "meta_mean_motion_dot": 3.525e-05,
        "meta_mean_motion_ddot": 0,
        "tle_line1": "1 30710U 99025ARU 25353.45972398  .00003525  00000+0  21978-2 0  9994",
        "tle_line2": "2 30710 102.7471 245.1907 0224534  67.2960 113.1689 13.94198535948821"
      },
      "geometry": {
        "type": "Point",
        "coordinates": [
          97.44819119126943,
          65.51773149540088
        ]
      }
    },
    {
      "type": "Feature",
      "properties": {
        "norad_id": 30714,
        "name": "FENGYUN 1C DEB",
        "group": "fengyun-1c-debris",
        "lat": 11.019054753954734,
        "lon": 41.78372376566375,
        "alt_km": 902.1805812230614,
        "timestamp": "2025-12-21T05:44:51.864078+00:00",
        "meta_object_name": "FENGYUN 1C DEB",
        "meta_object_id": "1999-025ARY",
        "meta_epoch": "2025-12-20T09:45:00.451008",
        "meta_mean_motion": 14.03301203,
        "meta_eccentricity": 0.00668106,
        "meta_inclination": 98.8354,
        "meta_ra_of_asc_node": 42.7102,
        "meta_arg_of_pericenter": 260.8853,
        "meta_mean_anomaly": 222.596,
        "meta_ephemeris_type": 0,
        "meta_classification_type": "U",
        "meta_norad_cat_id": 30714,
        "meta_element_set_no": 999,
        "meta_rev_at_epoch": 96100,
        "meta_bstar": 0.0002880687,
        "meta_mean_motion_dot": 4.15e-06,
        "meta_mean_motion_ddot": 0,
        "tle_line1": "1 30714U 99025ARY 25354.40625522  .00000415  00000+0  28807-3 0  9992",
        "tle_line2": "2 30714  98.8354  42.7102 0066810 260.8853 222.5960 14.03301203961002"
      },
      "geometry": {
        "type": "Point",
        "coordinates": [
          41.78372376566375,
          11.019054753954734
        ]
      }
    },
    {
      "type": "Feature",
      "properties": {
        "norad_id": 30715,
        "name": "FENGYUN 1C DEB",
        "group": "fengyun-1c-debris",
        "lat": -43.46276851282163,
        "lon": -124.1669903809165,
        "alt_km": 840.5134919109669,
        "timestamp": "2025-12-21T05:44:51.864088+00:00",
        "meta_object_name": "FENGYUN 1C DEB",
        "meta_object_id": "1999-025ARZ",
        "meta_epoch": "2025-12-20T03:14:13.276032",
        "meta_mean_motion": 14.14741752,
        "meta_eccentricity": 0.00676489,
        "meta_inclination": 98.9765,
        "meta_ra_of_asc_node": 63.338,
        "meta_arg_of_pericenter": 147.7265,
        "meta_mean_anomaly": 212.8074,
        "meta_ephemeris_type": 0,
        "meta_classification_type": "U",
        "meta_norad_cat_id": 30715,
        "meta_element_set_no": 999,
        "meta_rev_at_epoch": 96286,
        "meta_bstar": 0.0013476894,
        "meta_mean_motion_dot": 2.61e-05,
        "meta_mean_motion_ddot": 0,
        "tle_line1": "1 30715U 99025ARZ 25354.13487588  .00002610  00000+0  13477-2 0  9996",
        "tle_line2": "2 30715  98.9765  63.3380 0067648 147.7265 212.8074 14.14741752962869"
      },
      "geometry": {
        "type": "Point",
        "coordinates": [
          -124.1669903809165,
          -43.46276851282163
        ]
      }
    },
    {
      "type": "Feature",
      "properties": {
        "norad_id": 30716,
        "name": "FENGYUN 1C DEB",
        "group": "fengyun-1c-debris",
        "lat": -38.461489411789515,
        "lon": -7.9464276688797115,
        "alt_km": 650.3211506532152,
        "timestamp": "2025-12-21T05:44:51.864098+00:00",
        "meta_object_name": "FENGYUN 1C DEB",
        "meta_object_id": "1999-025ASA",
        "meta_epoch": "2025-12-20T00:13:48.544896",
        "meta_mean_motion": 14.79729125,
        "meta_eccentricity": 0.0020564,
        "meta_inclination": 98.8714,
        "meta_ra_of_asc_node": 177.8236,
        "meta_arg_of_pericenter": 59.0023,
        "meta_mean_anomaly": 91.9335,
        "meta_ephemeris_type": 0,
        "meta_classification_type": "U",
        "meta_norad_cat_id": 30716,
        "meta_element_set_no": 999,
        "meta_rev_at_epoch": 97931,
        "meta_bstar": 0.0021887264,
        "meta_mean_motion_dot": 0.00016483,
        "meta_mean_motion_ddot": 0,
        "tle_line1": "1 30716U 99025ASA 25354.00958964  .00016483  00000+0  21887-2 0  9991",
        "tle_line2": "2 30716  98.8714 177.8236 0020564  59.0023  91.9335 14.79729125979312"
      },
      "geometry": {
        "type": "Point",
        "coordinates": [
          -7.9464276688797115,
          -38.461489411789515
        ]
      }
    },
    {
      "type": "Feature",
      "properties": {
        "norad_id": 30717,
        "name": "FENGYUN 1C DEB",
        "group": "fengyun-1c-debris",
        "lat": 51.951445806518976,
        "lon": 54.455515437812245,
        "alt_km": 853.4949198231998,
        "timestamp": "2025-12-21T05:44:51.864108+00:00",
        "meta_object_name": "FENGYUN 1C DEB",
        "meta_object_id": "1999-025ASB",
        "meta_epoch": "2025-12-20T04:08:29.956416",
        "meta_mean_motion": 14.2058063,
        "meta_eccentricity": 0.0048592,
        "meta_inclination": 99.0169,
        "meta_ra_of_asc_node": 65.0735,
        "meta_arg_of_pericenter": 236.2066,
        "meta_mean_anomaly": 123.4477,
        "meta_ephemeris_type": 0,
        "meta_classification_type": "U",
        "meta_norad_cat_id": 30717,
        "meta_element_set_no": 999,
        "meta_rev_at_epoch": 96642,
        "meta_bstar": 0.00095022192,
        "meta_mean_motion_dot": 2.022e-05,
        "meta_mean_motion_ddot": 0,
        "tle_line1": "1 30717U 99025ASB 25354.17256894  .00002022  00000+0  95022-3 0  9990",
        "tle_line2": "2 30717  99.0169  65.0735 0048592 236.2066 123.4477 14.20580630966427"
      },
      "geometry": {
        "type": "Point",
        "coordinates": [
          54.455515437812245,
          51.951445806518976
        ]
      }
    },
    {
      "type": "Feature",
      "properties": {
        "norad_id": 30718,
        "name": "FENGYUN 1C DEB",
        "group": "fengyun-1c-debris",
        "lat": -59.096887050736775,
        "lon": -119.41897235066438,
        "alt_km": 829.892594859898,
        "timestamp": "2025-12-21T05:44:51.864118+00:00",
        "meta_object_name": "FENGYUN 1C DEB",
        "meta_object_id": "1999-025ASC",
        "meta_epoch": "2025-12-20T11:46:11.305632",
        "meta_mean_motion": 14.24399703,
        "meta_eccentricity": 0.005724,
        "meta_inclination": 98.8906,
        "meta_ra_of_asc_node": 74.9827,
        "meta_arg_of_pericenter": 134.6653,
        "meta_mean_anomaly": 225.9211,
        "meta_ephemeris_type": 0,
        "meta_classification_type": "U",
        "meta_norad_cat_id": 30718,
        "meta_element_set_no": 999,
        "meta_rev_at_epoch": 96884,
        "meta_bstar": 0.001023,
        "meta_mean_motion_dot": 2.363e-05,
        "meta_mean_motion_ddot": 0,
        "tle_line1": "1 30718U 99025ASC 25354.49040863  .00002363  00000+0  10230-2 0  9998",
        "tle_line2": "2 30718  98.8906  74.9827 0057240 134.6653 225.9211 14.24399703968843"
      },
      "geometry": {
        "type": "Point",
        "coordinates": [
          -119.41897235066438,
          -59.096887050736775
        ]
      }
    }
  ]
}